{
  "type": "FeatureCollection",
  "features": [
    {
      "type": "Feature",
      "properties": {
        "norad_id": 34554,
        "name": "COSMOS 2251 DEB",
        "group": "cosmos-2251-debris",
        "lat": 35.434921123219844,
        "lon": -39.970382857450126,
        "alt_km": 747.9931890814041,
        "timestamp": "2025-12-07T16:44:04.307373+00:00",
        "meta_object_name": "COSMOS 2251 DEB",
        "meta_object_id": "1993-036UQ",
        "meta_epoch": "2025-12-04T23:42:19.325952",
        "meta_mean_motion": 14.37912452,
        "meta_eccentricity": 0.0022634,
        "meta_inclination": 74.0382,
        "meta_ra_of_asc_node": 313.2655,
        "meta_arg_of_pericenter": 17.4579,
        "meta_mean_anomaly": 39.2705,
        "meta_ephemeris_type": 0,
        "meta_classification_type": "U",
        "meta_norad_cat_id": 34554,
        "meta_element_set_no": 999,
        "meta_rev_at_epoch": 87644,
        "meta_bstar": 0.0006467,
        "meta_mean_motion_dot": 1.933e-05,
        "meta_mean_motion_ddot": 0,
        "tle_line1": "1 34554U 93036UQ  25338.98772368  .00001933  00000+0  64670-3 0  9994",
        "tle_line2": "2 34554  74.0382 313.2655 0022634  17.4579  39.2705 14.37912452876445"
      },
      "geometry": {
        "type": "Point",
        "coordinates": [
          -39.970382857450126,
          35.434921123219844
        ]
      }
    },
    {
      "type": "Feature",
      "properties": {
        "norad_id": 34556,
        "name": "COSMOS 2251 DEB",
        "group": "cosmos-2251-debris",
        "lat": -14.32064577325531,
        "lon": -41.03954612764093,
        "alt_km": 635.2917099042261,
        "timestamp": "2025-12-07T16:44:04.307383+00:00",
        "meta_object_name": "COSMOS 2251 DEB",
        "meta_object_id": "1993-036US",
        "meta_epoch": "2025-12-06T20:53:58.479072",
        "meta_mean_motion": 14.7751401,
        "meta_eccentricity": 0.00086313,
        "meta_inclination": 74.0157,
        "meta_ra_of_asc_node": 136.387,
        "meta_arg_of_pericenter": 195.878,
        "meta_mean_anomaly": 284.7122,
        "meta_ephemeris_type": 0,
        "meta_classification_type": "U",
        "meta_norad_cat_id": 34556,
        "meta_element_set_no": 999,
        "meta_rev_at_epoch": 88242,
        "meta_bstar": 0.0041617792,
        "meta_mean_motion_dot": 0.00029811,
        "meta_mean_motion_ddot": 0,
        "tle_line1": "1 34556U 93036US  25340.87081573  .00029811  00000+0  41618-2 0  9999",
        "tle_line2": "2 34556  74.0157 136.3870 0008631 195.8780 284.7122 14.77514010882423"
      },
      "geometry": {
        "type": "Point",
        "coordinates": [
          -41.03954612764093,
          -14.32064577325531
        ]
      }
    },
    {
      "type": "Feature",
      "properties": {
        "norad_id": 34560,
        "name": "COSMOS 2251 DEB",
        "group": "cosmos-2251-debris",
        "lat": -10.218278069011268,
        "lon": -25.085429861898685,
        "alt_km": 650.7950666915067,
        "timestamp": "2025-12-07T16:44:04.307394+00:00",
        "meta_object_name": "COSMOS 2251 DEB",
        "meta_object_id": "1993-036UW",
        "meta_epoch": "2025-12-05T18:15:09.650304",
        "meta_mean_motion": 14.71848761,
        "meta_eccentricity": 0.00152187,
        "meta_inclination": 74.0158,
        "meta_ra_of_asc_node": 155.7221,
        "meta_arg_of_pericenter": 236.6913,
        "meta_mean_anomaly": 135.7434,
        "meta_ephemeris_type": 0,
        "meta_classification_type": "U",
        "meta_norad_cat_id": 34560,
        "meta_element_set_no": 999,
        "meta_rev_at_epoch": 88149,
        "meta_bstar": 0.0037712821,
        "meta_mean_motion_dot": 0.00023688,
        "meta_mean_motion_ddot": 0,
        "tle_line1": "1 34560U 93036UW  25339.76052836  .00023688  00000+0  37713-2 0  9997",
        "tle_line2": "2 34560  74.0158 155.7221 0015218 236.6913 135.7434 14.71848761881499"
      },
      "geometry": {
        "type": "Point",
        "coordinates": [
          -25.085429861898685,
          -10.218278069011268
        ]
      }
    },
    {
      "type": "Feature",
      "properties": {
        "norad_id": 34563,
        "name": "COSMOS 2251 DEB",
        "group": "cosmos-2251-debris",
        "lat": 55.28467859405806,
        "lon": -122.47739999109487,
        "alt_km": 735.164895124748,
        "timestamp": "2025-12-07T16:44:04.307404+00:00",
        "meta_object_name": "COSMOS 2251 DEB",
        "meta_object_id": "1993-036UZ",
        "meta_epoch": "2025-12-06T22:17:25.268352",
        "meta_mean_motion": 14.46482528,
        "meta_eccentricity": 0.00138331,
        "meta_inclination": 74.0381,
        "meta_ra_of_asc_node": 214.5566,
        "meta_arg_of_pericenter": 308.7117,
        "meta_mean_anomaly": 69.6972,
        "meta_ephemeris_type": 0,
        "meta_classification_type": "U",
        "meta_norad_cat_id": 34563,
        "meta_element_set_no": 999,
        "meta_rev_at_epoch": 88113,
        "meta_bstar": 0.00082885823,
        "meta_mean_motion_dot": 2.96e-05,
        "meta_mean_motion_ddot": 0,
        "tle_line1": "1 34563U 93036UZ  25340.92876468  .00002960  00000+0  82886-3 0  9997",
        "tle_line2": "2 34563  74.0381 214.5566 0013833 308.7117  69.6972 14.46482528881134"
      },
      "geometry": {
        "type": "Point",
        "coordinates": [
          -122.47739999109487,
          55.28467859405806
        ]
      }
    },
    {
      "type": "Feature",
      "properties": {
        "norad_id": 34564,
        "name": "COSMOS 2251 DEB",
        "group": "cosmos-2251-debris",
        "lat": -53.96694523913565,
        "lon": -135.83763546790595,
        "alt_km": 754.166532216057,
        "timestamp": "2025-12-07T16:44:04.307414+00:00",
        "meta_object_name": "COSMOS 2251 DEB",
        "meta_object_id": "1993-036VA",
        "meta_epoch": "2025-12-06T21:33:02.255328",
        "meta_mean_motion": 14.40674126,
        "meta_eccentricity": 0.00187888,
        "meta_inclination": 74.0328,
        "meta_ra_of_asc_node": 248.8191,
        "meta_arg_of_pericenter": 353.8102,
        "meta_mean_anomaly": 125.1644,
        "meta_ephemeris_type": 0,
        "meta_classification_type": "U",
        "meta_norad_cat_id": 34564,
        "meta_element_set_no": 999,
        "meta_rev_at_epoch": 87922,
        "meta_bstar": 0.00046991367,
        "meta_mean_motion_dot": 1.477e-05,
        "meta_mean_motion_ddot": 0,
        "tle_line1": "1 34564U 93036VA  25340.89794277  .00001477  00000+0  46991-3 0  9990",
        "tle_line2": "2 34564  74.0328 248.8191 0018788 353.8102 125.1644 14.40674126879221"
      },
      "geometry": {
        "type": "Point",
        "coordinates": [
          -135.83763546790595,
          -53.96694523913565
        ]
      }
    },
    {
      "type": "Feature",
      "properties": {
        "norad_id": 34567,
        "name": "COSMOS 2251 DEB",
        "group": "cosmos-2251-debris",
        "lat": -63.08124817541714,
        "lon": 131.54914106109274,
        "alt_km": 784.5489031298976,
        "timestamp": "2025-12-07T16:44:04.307424+00:00",
        "meta_object_name": "COSMOS 2251 DEB",
        "meta_object_id": "1993-036VD",
        "meta_epoch": "2025-12-06T23:13:45.554304",
        "meta_mean_motion": 14.24007121,
        "meta_eccentricity": 0.00745961,
        "meta_inclination": 74.0399,
        "meta_ra_of_asc_node": 167.1683,
        "meta_arg_of_pericenter": 242.661,
        "meta_mean_anomaly": 271.0407,
        "meta_ephemeris_type": 0,
        "meta_classification_type": "U",
        "meta_norad_cat_id": 34567,
        "meta_element_set_no": 999,
        "meta_rev_at_epoch": 87042,
        "meta_bstar": 0.00033214357,
        "meta_mean_motion_dot": 7.59e-06,
        "meta_mean_motion_ddot": 0,
        "tle_line1": "1 34567U 93036VD  25340.96788836  .00000759  00000+0  33214-3 0  9991",
        "tle_line2": "2 34567  74.0399 167.1683 0074596 242.6610 271.0407 14.24007121870427"
      },
      "geometry": {
        "type": "Point",
        "coordinates": [
          131.54914106109274,
          -63.08124817541714
        ]
      }
    },
    {
      "type": "Feature",
      "properties": {
        "norad_id": 34569,
        "name": "COSMOS 2251 DEB",
        "group": "cosmos-2251-debris",
        "lat": 73.41662270167699,
        "lon": -78.14988462605538,
        "alt_km": 726.7273349381921,
        "timestamp": "2025-12-07T16:44:04.307434+00:00",
        "meta_object_name": "COSMOS 2251 DEB",
        "meta_object_id": "1993-036VF",
        "meta_epoch": "2025-12-06T18:58:49.350144",
        "meta_mean_motion": 14.24728561,
        "meta_eccentricity": 0.01570318,
        "meta_inclination": 73.991,
        "meta_ra_of_asc_node": 208.8926,
        "meta_arg_of_pericenter": 38.6556,
        "meta_mean_anomaly": 78.4317,
        "meta_ephemeris_type": 0,
        "meta_classification_type": "U",
        "meta_norad_cat_id": 34569,
        "meta_element_set_no": 999,
        "meta_rev_at_epoch": 86883,
        "meta_bstar": 0.0010304998,
        "meta_mean_motion_dot": 2.703e-05,
        "meta_mean_motion_ddot": 0,
        "tle_line1": "1 34569U 93036VF  25340.79084896  .00002703  00000+0  10305-2 0  9995",
        "tle_line2": "2 34569  73.9910 208.8926 0157031  38.6556  78.4317 14.24728561868836"
      },
      "geometry": {
        "type": "Point",
        "coordinates": [
          -78.14988462605538,
          73.41662270167699
        ]
      }
    }
  ]
}